ALOS-4 (DAICHI-4)       
1 60182U 24123A   24292.22132243  .00007677  00000+0  10336-2 0  9998
2 60182  97.9224  27.1072 0001360 100.6375 259.4990 14.79478191 16133
